[
    {
        "OBJECT_NAME": "STARLINK-2263",
        "OBJECT_ID": "2021-024AC",
        "EPOCH": "2023-11-14T21:26:28.463136",
        "MEAN_MOTION": 15.06416462,
        "ECCENTRICITY": 0.0001331,
        "INCLINATION": 53.0521,
        "RA_OF_ASC_NODE": 173.5452,
        "ARG_OF_PERICENTER": 81.2932,
        "MEAN_ANOMALY": 278.8208,
        "EPHEMERIS_TYPE": 0,
        "CLASSIFICATION_TYPE": "U",
        "NORAD_CAT_ID": 48003,
        "ELEMENT_SET_NO": 999,
        "REV_AT_EPOCH": 14654,
        "BSTAR": 0.0003049,
        "MEAN_MOTION_DOT": 4.265e-5,
        "MEAN_MOTION_DDOT": 0
    },
    {
        "OBJECT_NAME": "STARLINK-2254",
        "OBJECT_ID": "2021-024AE",
        "EPOCH": "2023-11-14T19:17:44.809440",
        "MEAN_MOTION": 15.064115,
        "ECCENTRICITY": 0.0001314,
        "INCLINATION": 53.0544,
        "RA_OF_ASC_NODE": 143.9479,
        "ARG_OF_PERICENTER": 88.081,
        "MEAN_ANOMALY": 272.033,
        "EPHEMERIS_TYPE": 0,
        "CLASSIFICATION_TYPE": "U",
        "NORAD_CAT_ID": 48005,
        "ELEMENT_SET_NO": 999,
        "REV_AT_EPOCH": 14742,
        "BSTAR": 0.00012447,
        "MEAN_MOTION_DOT": 1.574e-5,
        "MEAN_MOTION_DDOT": 0
    },
    {
        "OBJECT_NAME": "STARLINK-2271",
        "OBJECT_ID": "2021-024AH",
        "EPOCH": "2023-11-14T13:26:42.948384",
        "MEAN_MOTION": 15.06419566,
        "ECCENTRICITY": 0.0001231,
        "INCLINATION": 53.0537,
        "RA_OF_ASC_NODE": 80.0379,
        "ARG_OF_PERICENTER": 98.3906,
        "MEAN_ANOMALY": 261.7222,
        "EPHEMERIS_TYPE": 0,
        "CLASSIFICATION_TYPE": "U",
        "NORAD_CAT_ID": 48008,
        "ELEMENT_SET_NO": 999,
        "REV_AT_EPOCH": 14783,
        "BSTAR": -0.00029045,
        "MEAN_MOTION_DOT": -4.607e-5,
        "MEAN_MOTION_DDOT": 0
    },
    {
        "OBJECT_NAME": "STARLINK-2153",
        "OBJECT_ID": "2021-024AJ",
        "EPOCH": "2023-11-14T19:37:39.522720",
        "MEAN_MOTION": 15.06409132,
        "ECCENTRICITY": 0.0001326,
        "INCLINATION": 53.0538,
        "RA_OF_ASC_NODE": 153.8873,
        "ARG_OF_PERICENTER": 85.0835,
        "MEAN_ANOMALY": 275.0305,
        "EPHEMERIS_TYPE": 0,
        "CLASSIFICATION_TYPE": "U",
        "NORAD_CAT_ID": 48009,
        "ELEMENT_SET_NO": 999,
        "REV_AT_EPOCH": 14729,
        "BSTAR": 0.00012905,
        "MEAN_MOTION_DOT": 1.642e-5,
        "MEAN_MOTION_DDOT": 0
    },
    {
        "OBJECT_NAME": "STARLINK-2226",
        "OBJECT_ID": "2021-024AK",
        "EPOCH": "2023-11-15T00:42:51.638112",
        "MEAN_MOTION": 15.06415134,
        "ECCENTRICITY": 0.0001672,
        "INCLINATION": 53.0532,
        "RA_OF_ASC_NODE": 172.9353,
        "ARG_OF_PERICENTER": 86.1674,
        "MEAN_ANOMALY": 273.9507,
        "EPHEMERIS_TYPE": 0,
        "CLASSIFICATION_TYPE": "U",
        "NORAD_CAT_ID": 48010,
        "ELEMENT_SET_NO": 999,
        "REV_AT_EPOCH": 14656,
        "BSTAR": 0.00021754,
        "MEAN_MOTION_DOT": 2.961e-5,
        "MEAN_MOTION_DDOT": 0
    },
    {
        "OBJECT_NAME": "STARLINK-2272",
        "OBJECT_ID": "2021-024AL",
        "EPOCH": "2023-11-14T15:56:11.306400",
        "MEAN_MOTION": 15.04772146,
        "ECCENTRICITY": 0.0001091,
        "INCLINATION": 53.0543,
        "RA_OF_ASC_NODE": 154.6729,
        "ARG_OF_PERICENTER": 94.2582,
        "MEAN_ANOMALY": 265.8531,
        "EPHEMERIS_TYPE": 0,
        "CLASSIFICATION_TYPE": "U",
        "NORAD_CAT_ID": 48011,
        "ELEMENT_SET_NO": 999,
        "REV_AT_EPOCH": 14732,
        "BSTAR": 0.00020116,
        "MEAN_MOTION_DOT": 2.592e-5,
        "MEAN_MOTION_DDOT": 0
    },
    {
        "OBJECT_NAME": "STARLINK-2243",
        "OBJECT_ID": "2021-024AN",
        "EPOCH": "2023-11-14T22:37:27.524352",
        "MEAN_MOTION": 15.06408068,
        "ECCENTRICITY": 0.0001602,
        "INCLINATION": 53.0527,
        "RA_OF_ASC_NODE": 138.3249,
        "ARG_OF_PERICENTER": 96.7288,
        "MEAN_ANOMALY": 263.3883,
        "EPHEMERIS_TYPE": 0,
        "CLASSIFICATION_TYPE": "U",
        "NORAD_CAT_ID": 48013,
        "ELEMENT_SET_NO": 999,
        "REV_AT_EPOCH": 14705,
        "BSTAR": 8.9253e-5,
        "MEAN_MOTION_DOT": 1.048e-5,
        "MEAN_MOTION_DDOT": 0
    },
    {
        "OBJECT_NAME": "STARLINK-2283",
        "OBJECT_ID": "2021-024AP",
        "EPOCH": "2023-11-14T19:49:36.920928",
        "MEAN_MOTION": 15.06413935,
        "ECCENTRICITY": 0.000116,
        "INCLINATION": 53.054,
        "RA_OF_ASC_NODE": 104.0091,
        "ARG_OF_PERICENTER": 95.0078,
        "MEAN_ANOMALY": 265.1043,
        "EPHEMERIS_TYPE": 0,
        "CLASSIFICATION_TYPE": "U",
        "NORAD_CAT_ID": 48014,
        "ELEMENT_SET_NO": 999,
        "REV_AT_EPOCH": 14804,
        "BSTAR": 0.00015703,
        "MEAN_MOTION_DOT": 2.059e-5,
        "MEAN_MOTION_DDOT": 0
    },
    {
        "OBJECT_NAME": "STARLINK-2284",
        "OBJECT_ID": "2021-024AR",
        "EPOCH": "2023-11-14T18:55:53.232384",
        "MEAN_MOTION": 15.06414276,
        "ECCENTRICITY": 0.0001397,
        "INCLINATION": 53.0545,
        "RA_OF_ASC_NODE": 89.2178,
        "ARG_OF_PERICENTER": 84.2388,
        "MEAN_ANOMALY": 275.876,
        "EPHEMERIS_TYPE": 0,
        "CLASSIFICATION_TYPE": "U",
        "NORAD_CAT_ID": 48016,
        "ELEMENT_SET_NO": 999,
        "REV_AT_EPOCH": 14824,
        "BSTAR": 9.23e-5,
        "MEAN_MOTION_DOT": 1.094e-5,
        "MEAN_MOTION_DDOT": 0
    },
    {
        "OBJECT_NAME": "STARLINK-2282",
        "OBJECT_ID": "2021-024AT",
        "EPOCH": "2023-11-14T23:27:56.839680",
        "MEAN_MOTION": 15.06395659,
        "ECCENTRICITY": 0.0001255,
        "INCLINATION": 53.0518,
        "RA_OF_ASC_NODE": 158.3704,
        "ARG_OF_PERICENTER": 97.0113,
        "MEAN_ANOMALY": 263.1019,
        "EPHEMERIS_TYPE": 0,
        "CLASSIFICATION_TYPE": "U",
        "NORAD_CAT_ID": 48018,
        "ELEMENT_SET_NO": 999,
        "REV_AT_EPOCH": 14677,
        "BSTAR": 0.00021695,
        "MEAN_MOTION_DOT": 2.951e-5,
        "MEAN_MOTION_DDOT": 0
    },
    {
        "OBJECT_NAME": "STARLINK-2285",
        "OBJECT_ID": "2021-024AU",
        "EPOCH": "2023-11-14T12:41:40.180128",
        "MEAN_MOTION": 15.06405646,
        "ECCENTRICITY": 0.0001432,
        "INCLINATION": 53.0537,
        "RA_OF_ASC_NODE": 150.1836,
        "ARG_OF_PERICENTER": 85.0967,
        "MEAN_ANOMALY": 275.0186,
        "EPHEMERIS_TYPE": 0,
        "CLASSIFICATION_TYPE": "U",
        "NORAD_CAT_ID": 48019,
        "ELEMENT_SET_NO": 999,
        "REV_AT_EPOCH": 14731,
        "BSTAR": 0.00016066,
        "MEAN_MOTION_DOT": 2.113e-5,
        "MEAN_MOTION_DDOT": 0
    },
    {
        "OBJECT_NAME": "STARLINK-2294",
        "OBJECT_ID": "2021-024AV",
        "EPOCH": "2023-11-14T16:54:31.887072",
        "MEAN_MOTION": 15.06412639,
        "ECCENTRICITY": 0.0001037,
        "INCLINATION": 53.0525,
        "RA_OF_ASC_NODE": 104.7898,
        "ARG_OF_PERICENTER": 101.6148,
        "MEAN_ANOMALY": 258.4957,
        "EPHEMERIS_TYPE": 0,
        "CLASSIFICATION_TYPE": "U",
        "NORAD_CAT_ID": 48020,
        "ELEMENT_SET_NO": 999,
        "REV_AT_EPOCH": 14796,
        "BSTAR": 0.00047983,
        "MEAN_MOTION_DOT": 6.875e-5,
        "MEAN_MOTION_DDOT": 0
    },
    {
        "OBJECT_NAME": "STARLINK-2301",
        "OBJECT_ID": "2021-024AW",
        "EPOCH": "2023-11-14T23:34:02.106912",
        "MEAN_MOTION": 15.06734009,
        "ECCENTRICITY": 0.000139,
        "INCLINATION": 53.0544,
        "RA_OF_ASC_NODE": 108.1426,
        "ARG_OF_PERICENTER": 94.1981,
        "MEAN_ANOMALY": 265.9167,
        "EPHEMERIS_TYPE": 0,
        "CLASSIFICATION_TYPE": "U",
        "NORAD_CAT_ID": 48021,
        "ELEMENT_SET_NO": 999,
        "REV_AT_EPOCH": 14748,
        "BSTAR": 0.0028,
        "MEAN_MOTION_DOT": 0.00042054,
        "MEAN_MOTION_DDOT": 0
    }
]
