STARLINK-2263           
1 48003U 21024AC  23318.89338499  .00004265  00000+0  30490-3 0  9999
2 48003  53.0521 173.5452 0001331  81.2932 278.8208 15.06416462146543
STARLINK-2254           
1 48005U 21024AE  23318.80399085  .00001574  00000+0  12447-3 0  9992
2 48005  53.0544 143.9479 0001314  88.0810 272.0330 15.06411500147429
STARLINK-2271           
1 48008U 21024AH  23318.56021931 -.00004607  00000+0 -29045-3 0  9994
2 48008  53.0537  80.0379 0001231  98.3906 261.7222 15.06419566147832
STARLINK-2153           
1 48009U 21024AJ  23318.81781855  .00001642  00000+0  12905-3 0  9992
2 48009  53.0538 153.8873 0001326  85.0835 275.0305 15.06409132147299
STARLINK-2226           
1 48010U 21024AK  23319.02976433  .00002961  00000+0  21754-3 0  9993
2 48010  53.0532 172.9353 0001672  86.1674 273.9507 15.06415134146566
STARLINK-2272           
1 48011U 21024AL  23318.66401975  .00002592  00000+0  20116-3 0  9998
2 48011  53.0543 154.6729 0001091  94.2582 265.8531 15.04772146147325
STARLINK-2243           
1 48013U 21024AN  23318.94267968  .00001048  00000+0  89253-4 0  9996
2 48013  53.0527 138.3249 0001602  96.7288 263.3883 15.06408068147057
STARLINK-2283           
1 48014U 21024AP  23318.82612177  .00002059  00000+0  15703-3 0  9991
2 48014  53.0540 104.0091 0001160  95.0078 265.1043 15.06413935148043
STARLINK-2284           
1 48016U 21024AR  23318.78881056  .00001094  00000+0  92300-4 0  9999
2 48016  53.0545  89.2178 0001397  84.2388 275.8760 15.06414276148241
STARLINK-2282           
1 48018U 21024AT  23318.97774120  .00002951  00000+0  21695-3 0  9996
2 48018  53.0518 158.3704 0001255  97.0113 263.1019 15.06395659146773
STARLINK-2285           
1 48019U 21024AU  23318.52893727  .00002113  00000+0  16066-3 0  9999
2 48019  53.0537 150.1836 0001432  85.0967 275.0186 15.06405646147318
STARLINK-2294           
1 48020U 21024AV  23318.70453573  .00006875  00000+0  47983-3 0  9993
2 48020  53.0525 104.7898 0001037 101.6148 258.4957 15.06412639147969
STARLINK-2301           
1 48021U 21024AW  23318.98196883  .00042054  00000+0  28000-2 0  9999
2 48021  53.0544 108.1426 0001390  94.1981 265.9167 15.06734009147480
